{"type": "FeatureCollection", "features": [{"type": "Feature", "properties": {"RouteName": "US 74", "source": "OSM carriageway median, MP calibrated on the NC 108, SR 1526 and SR 1330 structures from the TEAAS features report", "fit": "MP = 8.8180 + 1.00537 * arc_mi; anchor residuals under 75 ft"}, "geometry": {"type": "LineString", "coordinates": [[-82.146224, 35.27091, 12.4542], [-82.146137, 35.270924, 12.4592], [-82.146051, 35.270939, 12.4642], [-82.145964, 35.270954, 12.4692], [-82.145877, 35.270968, 12.4743], [-82.145791, 35.270983, 12.4793], [-82.145704, 35.270997, 12.4843], [-82.145617, 35.271012, 12.4893], [-82.14553, 35.271027, 12.4944], [-82.145444, 35.271041, 12.4994], [-82.145357, 35.271056, 12.5044], [-82.14527, 35.271071, 12.5094], [-82.145184, 35.271085, 12.5145], [-82.145097, 35.2711, 12.5195], [-82.145012, 35.271114, 12.5244], [-82.144925, 35.271129, 12.5294], [-82.144839, 35.271144, 12.5345], [-82.144752, 35.271159, 12.5395], [-82.144666, 35.271175, 12.5445], [-82.144579, 35.271191, 12.5495], [-82.144493, 35.271207, 12.5546], [-82.144407, 35.271223, 12.5596], [-82.14432, 35.271239, 12.5646], [-82.144234, 35.271255, 12.5697], [-82.144148, 35.271271, 12.5747], [-82.144061, 35.271287, 12.5797], [-82.143975, 35.271303, 12.5847], [-82.143889, 35.271319, 12.5898], [-82.143802, 35.271335, 12.5948], [-82.143716, 35.271351, 12.5998], [-82.14363, 35.271367, 12.6048], [-82.143543, 35.271383, 12.6099], [-82.143457, 35.271399, 12.6149], [-82.143371, 35.271415, 12.6199], [-82.143284, 35.271431, 12.625], [-82.143198, 35.271447, 12.63], [-82.143112, 35.271463, 12.635], [-82.143025, 35.271479, 12.64], [-82.142939, 35.271495, 12.6451], [-82.142852, 35.271511, 12.6501], [-82.142766, 35.271527, 12.6551], [-82.14268, 35.271543, 12.6601], [-82.142593, 35.271559, 12.6652], [-82.142507, 35.271575, 12.6702], [-82.142421, 35.271591, 12.6752], [-82.142334, 35.271607, 12.6802], [-82.142248, 35.271623, 12.6853], [-82.142162, 35.271639, 12.6903], [-82.142075, 35.271655, 12.6953], [-82.141989, 35.271671, 12.7004], [-82.141903, 35.271687, 12.7054], [-82.141816, 35.271703, 12.7104], [-82.141729, 35.271719, 12.7155], [-82.141642, 35.271735, 12.7205], [-82.141556, 35.27175, 12.7255], [-82.14147, 35.271766, 12.7306], [-82.141383, 35.271782, 12.7356], [-82.141297, 35.271798, 12.7406], [-82.14121, 35.271813, 12.7457], [-82.141124, 35.271829, 12.7507], [-82.141038, 35.271845, 12.7557], [-82.140951, 35.271861, 12.7607], [-82.140865, 35.271877, 12.7658], [-82.140778, 35.271893, 12.7708], [-82.140692, 35.271909, 12.7758], [-82.140606, 35.271925, 12.7808], [-82.140519, 35.271941, 12.7859], [-82.140433, 35.271957, 12.7909], [-82.140347, 35.271973, 12.7959], [-82.14026, 35.271989, 12.8009], [-82.140174, 35.272004, 12.806], [-82.140088, 35.27202, 12.811], [-82.140001, 35.272036, 12.816], [-82.139915, 35.272052, 12.8211], [-82.139834, 35.272067, 12.8257], [-82.139755, 35.272084, 12.8304], [-82.13967, 35.272104, 12.8354], [-82.139585, 35.272126, 12.8405], [-82.139501, 35.272147, 12.8455], [-82.139416, 35.272169, 12.8505], [-82.139332, 35.272191, 12.8555], [-82.139247, 35.272212, 12.8606], [-82.139163, 35.272234, 12.8656], [-82.139078, 35.272256, 12.8706], [-82.138994, 35.272277, 12.8756], [-82.138909, 35.272299, 12.8807], [-82.13883, 35.27232, 12.8854], [-82.138747, 35.272343, 12.8904], [-82.138663, 35.272367, 12.8954], [-82.13858, 35.272392, 12.9005], [-82.138497, 35.272416, 12.9055], [-82.138413, 35.272441, 12.9105], [-82.13833, 35.272465, 12.9155], [-82.138247, 35.27249, 12.9206], [-82.138163, 35.272514, 12.9256], [-82.13808, 35.272539, 12.9306], [-82.138003, 35.272561, 12.9353], [-82.137929, 35.272587, 12.9398], [-82.137848, 35.272617, 12.9449], [-82.137768, 35.272648, 12.9499], [-82.137688, 35.272678, 12.9549], [-82.137607, 35.272708, 12.9599], [-82.137527, 35.272738, 12.965], [-82.137446, 35.272769, 12.97], [-82.137366, 35.272799, 12.975], [-82.137285, 35.272829, 12.98], [-82.137205, 35.272859, 12.9851], [-82.137125, 35.27289, 12.9901], [-82.137049, 35.272921, 12.9949], [-82.136978, 35.272954, 12.9995], [-82.136901, 35.272989, 13.0045], [-82.136824, 35.273025, 13.0096], [-82.136747, 35.273061, 13.0146], [-82.13667, 35.273096, 13.0196], [-82.136593, 35.273132, 13.0247], [-82.136515, 35.273167, 13.0297], [-82.136438, 35.273203, 13.0347], [-82.136361, 35.273238, 13.0397], [-82.136284, 35.273274, 13.0448], [-82.136207, 35.273309, 13.0498], [-82.13613, 35.273345, 13.0548], [-82.136067, 35.273377, 13.059], [-82.135993, 35.273417, 13.064], [-82.135919, 35.273456, 13.069], [-82.135845, 35.273496, 13.0741], [-82.135771, 35.273536, 13.0791], [-82.135698, 35.273575, 13.0841], [-82.135624, 35.273616, 13.0891], [-82.13556, 35.273656, 13.0937], [-82.135494, 35.2737, 13.0986], [-82.135425, 35.273745, 13.1036], [-82.135356, 35.273791, 13.1086], [-82.135287, 35.273836, 13.1136], [-82.135218, 35.273882, 13.1187], [-82.135149, 35.273927, 13.1237], [-82.135081, 35.273973, 13.1287], [-82.135012, 35.274019, 13.1337], [-82.134943, 35.274064, 13.1388], [-82.134874, 35.27411, 13.1438], [-82.134805, 35.274155, 13.1488], [-82.134736, 35.274201, 13.1539], [-82.134668, 35.274246, 13.1589], [-82.134599, 35.274292, 13.1639], [-82.13453, 35.274337, 13.1689], [-82.134461, 35.274383, 13.174], [-82.134392, 35.274428, 13.179], [-82.134323, 35.274474, 13.184], [-82.134254, 35.274519, 13.189], [-82.134186, 35.274565, 13.1941], [-82.134127, 35.274606, 13.1984], [-82.134062, 35.274655, 13.2035], [-82.133997, 35.274704, 13.2085], [-82.133932, 35.274753, 13.2135], [-82.133867, 35.274803, 13.2186], [-82.133802, 35.274852, 13.2236], [-82.133737, 35.274901, 13.2286], [-82.133672, 35.27495, 13.2336], [-82.133607, 35.274999, 13.2387], [-82.133542, 35.275048, 13.2437], [-82.133477, 35.275098, 13.2487], [-82.133412, 35.275147, 13.2537], [-82.133347, 35.275196, 13.2588], [-82.133282, 35.275245, 13.2638], [-82.133217, 35.275294, 13.2688], [-82.133152, 35.275344, 13.2738], [-82.133087, 35.275393, 13.2789], [-82.133022, 35.275442, 13.2839], [-82.132957, 35.275491, 13.2889], [-82.132892, 35.27554, 13.294], [-82.132827, 35.27559, 13.299], [-82.132762, 35.275639, 13.304], [-82.132697, 35.275688, 13.309], [-82.132632, 35.275737, 13.3141], [-82.132567, 35.275786, 13.3191], [-82.132503, 35.275835, 13.3241], [-82.132438, 35.275885, 13.3291], [-82.132373, 35.275934, 13.3342], [-82.132308, 35.275983, 13.3392], [-82.132243, 35.276032, 13.3442], [-82.132178, 35.276081, 13.3492], [-82.132113, 35.276131, 13.3543], [-82.132048, 35.27618, 13.3593], [-82.131982, 35.27623, 13.3644], [-82.131917, 35.276279, 13.3694], [-82.131852, 35.276328, 13.3744], [-82.131787, 35.276377, 13.3795], [-82.131722, 35.276426, 13.3845], [-82.131657, 35.276475, 13.3895], [-82.131592, 35.276525, 13.3945], [-82.131527, 35.276574, 13.3996], [-82.131462, 35.276623, 13.4046], [-82.131397, 35.276672, 13.4096], [-82.131332, 35.276721, 13.4147], [-82.131267, 35.27677, 13.4197], [-82.131202, 35.27682, 13.4247], [-82.131137, 35.276869, 13.4297], [-82.131072, 35.276918, 13.4348], [-82.131007, 35.276967, 13.4398], [-82.130942, 35.277016, 13.4448], [-82.130877, 35.277066, 13.4498], [-82.130814, 35.277113, 13.4547], [-82.130751, 35.277164, 13.4597], [-82.130687, 35.277214, 13.4648], [-82.130623, 35.277264, 13.4698], [-82.130559, 35.277314, 13.4748], [-82.130495, 35.277364, 13.4798], [-82.130431, 35.277414, 13.4849], [-82.130367, 35.277464, 13.4899], [-82.130303, 35.277514, 13.4949], [-82.130239, 35.277565, 13.5], [-82.130175, 35.277615, 13.505], [-82.130112, 35.277665, 13.51], [-82.130048, 35.277715, 13.515], [-82.129984, 35.277765, 13.5201], [-82.12992, 35.277815, 13.5251], [-82.129849, 35.277866, 13.5304], [-82.129783, 35.277914, 13.5355], [-82.129716, 35.277962, 13.5405], [-82.129649, 35.278009, 13.5455], [-82.129583, 35.278057, 13.5505], [-82.129516, 35.278105, 13.5556], [-82.129449, 35.278152, 13.5606], [-82.129383, 35.2782, 13.5656], [-82.129298, 35.278255, 13.5718], [-82.129226, 35.278297, 13.5768], [-82.129153, 35.278337, 13.5818], [-82.129079, 35.278377, 13.5868], [-82.129005, 35.278417, 13.5919], [-82.12892, 35.278463, 13.5976], [-82.128843, 35.278499, 13.6027], [-82.128767, 35.278536, 13.6077], [-82.12869, 35.278572, 13.6127], [-82.128613, 35.278608, 13.6177], [-82.128537, 35.278644, 13.6228], [-82.128458, 35.278677, 13.6278], [-82.128364, 35.278713, 13.6337], [-82.128283, 35.278742, 13.6387], [-82.128203, 35.278772, 13.6437], [-82.128122, 35.278801, 13.6487], [-82.128041, 35.278831, 13.6538], [-82.127946, 35.278862, 13.6595], [-82.127863, 35.278886, 13.6646], [-82.127779, 35.27891, 13.6696], [-82.127696, 35.278934, 13.6746], [-82.127612, 35.278957, 13.6796], [-82.127509, 35.278986, 13.6858], [-82.127423, 35.279002, 13.6908], [-82.127336, 35.279017, 13.6959], [-82.127249, 35.279031, 13.7009], [-82.127163, 35.279046, 13.7059], [-82.127076, 35.279061, 13.7109], [-82.126989, 35.279076, 13.716], [-82.126886, 35.279091, 13.7219], [-82.126799, 35.279099, 13.7269], [-82.12671, 35.279106, 13.732], [-82.126622, 35.279113, 13.737], [-82.126534, 35.27912, 13.742], [-82.126446, 35.279127, 13.747], [-82.126347, 35.279134, 13.7527], [-82.126259, 35.279139, 13.7577], [-82.126171, 35.279142, 13.7627], [-82.126082, 35.279142, 13.7677], [-82.125994, 35.279143, 13.7727], [-82.125905, 35.279144, 13.7778], [-82.125817, 35.279144, 13.7828], [-82.125728, 35.279145, 13.7878], [-82.12564, 35.279146, 13.7928], [-82.12554, 35.279145, 13.7985], [-82.125451, 35.279143, 13.8036], [-82.125363, 35.279141, 13.8086], [-82.125274, 35.279139, 13.8136], [-82.125186, 35.279136, 13.8186], [-82.125097, 35.279133, 13.8237], [-82.125009, 35.27913, 13.8287], [-82.12492, 35.279127, 13.8337], [-82.124832, 35.279124, 13.8387], [-82.124743, 35.279121, 13.8438], [-82.124655, 35.279118, 13.8488], [-82.124566, 35.279115, 13.8538], [-82.124478, 35.279112, 13.8588], [-82.124389, 35.279109, 13.8639], [-82.124301, 35.279107, 13.8689], [-82.124212, 35.279104, 13.8739], [-82.124124, 35.279102, 13.879], [-82.124038, 35.2791, 13.8839], [-82.123949, 35.279098, 13.8889], [-82.12386, 35.279096, 13.8939], [-82.123772, 35.279094, 13.8989], [-82.123683, 35.279093, 13.904], [-82.123595, 35.279092, 13.909], [-82.123506, 35.279091, 13.914], [-82.123429, 35.279093, 13.9184], [-82.123341, 35.279095, 13.9234], [-82.123253, 35.279097, 13.9284], [-82.123164, 35.279099, 13.9335], [-82.123076, 35.279101, 13.9385], [-82.122993, 35.279106, 13.9432], [-82.122905, 35.279112, 13.9482], [-82.122817, 35.279118, 13.9532], [-82.122728, 35.279124, 13.9583], [-82.12264, 35.27913, 13.9633], [-82.122552, 35.279136, 13.9683], [-82.122464, 35.279142, 13.9733], [-82.122376, 35.279147, 13.9784], [-82.122288, 35.279155, 13.9834], [-82.122215, 35.279164, 13.9876], [-82.122128, 35.279177, 13.9926], [-82.122041, 35.279189, 13.9976], [-82.121953, 35.279202, 14.0026], [-82.121866, 35.279215, 14.0077], [-82.121779, 35.279227, 14.0127], [-82.121692, 35.27924, 14.0177], [-82.121605, 35.279252, 14.0227], [-82.121522, 35.279264, 14.0275], [-82.121441, 35.279278, 14.0322], [-82.121355, 35.279294, 14.0372], [-82.121269, 35.279311, 14.0422], [-82.121183, 35.279328, 14.0473], [-82.121096, 35.279344, 14.0523], [-82.12101, 35.279361, 14.0573], [-82.120924, 35.279378, 14.0623], [-82.120838, 35.279395, 14.0674], [-82.120764, 35.279412, 14.0718], [-82.120679, 35.279435, 14.0768], [-82.120595, 35.279457, 14.0818], [-82.120511, 35.279479, 14.0868], [-82.120427, 35.279502, 14.0919], [-82.120342, 35.279524, 14.0969], [-82.120258, 35.279546, 14.1019], [-82.120185, 35.279566, 14.1063], [-82.120103, 35.279592, 14.1113], [-82.12002, 35.279618, 14.1163], [-82.119937, 35.279644, 14.1214], [-82.119855, 35.27967, 14.1264], [-82.119772, 35.279696, 14.1314], [-82.11969, 35.279722, 14.1364], [-82.119608, 35.27975, 14.1415], [-82.119526, 35.279777, 14.1465]]}}]}